P/2011 NO1 (Elenin),e,15.2478,295.8041,263.7807,5.525722,0.0758788,0.77461263,293.5967,08/24.0/2021,2000,g 15.0,4.0
# From MPC 82318
P/2011 P1 (McNaught),e,5.6604,4.2369,348.9554,7.464966,0.0483239,0.32758627,195.6614,08/24.0/2021,2000,g  9.0,4.0
# From MPC 77806
P/2011 Q3 (McNaught),e,6.0574,32.0274,310.9906,4.970724,0.0889354,0.53277218,327.9462,08/24.0/2021,2000,g 13.5,4.0
# From MPC 98558
P/2011 S1 (Gibbs),e,2.6850,218.8712,192.4266,8.584431,0.0391865,0.20071547,100.6977,08/24.0/2021,2000,g  8.0,4.0
# From MPC 79022
P/2011 UA134 (Spacewatch-PANSTARRS),e,10.4408,40.4043,32.4195,5.607096,0.0742330,0.62937657,265.4420,08/24.0/2021,2000,g 17.5,4.0
# From MPC 77406
P/2011 V1 (Boattini),e,7.3755,46.8219,269.3050,3.855743,0.1301793,0.55055880,137.5587,08/24.0/2021,2000,g 15.5,4.0
# From MPC 82718
P/2011 W1 (PANSTARRS),e,3.7186,161.7884,282.7438,4.661640,0.0979256,0.28736652,343.5778,08/24.0/2021,2000,g 11.5,4.0
# From MPC 79342
P/2011 Y2 (Boattini),e,6.3720,309.3639,131.9108,6.239661,0.0632357,0.70953531,218.7821,08/24.0/2021,2000,g 15.0,4.0
# From MPC 94669
P/2012 B1 (PANSTARRS),e,7.6122,36.2121,162.5302,6.529858,0.0590675,0.40922622,174.8424,08/24.0/2021,2000,g  9.0,4.0
# From MPC 78590
P/2012 C3 (PANSTARRS),e,9.0920,135.3677,344.9542,9.748681,0.0323806,0.63011148,359.9758,10/06.0/2011,2000,g 13.0,4.0
# From MPC 84931
P/2012 F2 (PANSTARRS),e,14.7144,227.0297,33.3016,6.331025,0.0618718,0.54216511,189.0495,08/24.0/2021,2000,g 12.0,4.0
# From MPC 79344
P/2012 G1 (PANSTARRS),e,11.6925,282.5440,286.1149,4.172871,0.1156250,0.38072240,359.9500,06/01.0/2012,2000,g 15.0,4.0
# From MPC 80898
P/2012 K3 (Gibbs),e,13.1944,125.8095,172.1995,3.626115,0.1427387,0.42328481,105.2685,08/24.0/2021,2000,g 15.0,4.0
# From MPC 88326
P/2012 NJ (La Sagra),e,84.6620,315.5456,338.3549,8.462131,0.0400391,0.84713348,134.4567,08/24.0/2021,2000,g 14.5,4.0
# From MPC 81470
P/2012 O1 (McNaught),e,7.4308,91.9724,238.2505,3.540800,0.1479285,0.59459089,133.9286,08/24.0/2021,2000,g 17.5,4.0
# From MPC 80899
P/2012 O2 (McNaught),e,24.4847,120.6808,183.4417,3.624315,0.1428451,0.53265226,120.1112,08/24.0/2021,2000,g 17.0,4.0
# From MPC 82720
P/2012 O3 (McNaught),e,16.6160,336.4145,344.7408,4.572811,0.1007927,0.64700552,331.9029,08/24.0/2021,2000,g 16.5,4.0
# From MPC 82320
P/2012 T2 (PANSTARRS),e,12.5597,73.7206,310.4731,5.734296,0.0717768,0.16145454,218.6235,08/24.0/2021,2000,g 10.0,4.0
# From MPC 80900
P/2012 T3 (PANSTARRS),e,9.5666,114.4021,195.4828,6.151394,0.0646017,0.61724247,219.5901,08/24.0/2021,2000,g 15.0,4.0
# From MPC 87914
P/2012 TK8 (Tenagra),e,6.3402,288.9634,128.0281,4.127086,0.1175544,0.27422142,352.5782,08/24.0/2021,2000,g 13.0,4.0
# From MPC 82720
P/2012 U2 (PANSTARRS),e,10.7553,185.3014,228.2586,7.138386,0.0516778,0.49862596,165.8500,08/24.0/2021,2000,g 12.5,4.0
# From MPC 84024
P/2012 US27 (Siding Spring),e,39.3474,49.1825,0.8025,5.166470,0.0839292,0.64773698,263.0817,08/24.0/2021,2000,g 13.5,4.0
# From MPC 82721
P/2012 WA34 (Lemmon-PANSTARRS),e,6.0842,93.9873,354.9974,4.723938,0.0959948,0.34616895,294.8802,08/24.0/2021,2000,g 13.5,4.0
# From MPC 82721
P/2013 AL76 (Catalina),e,144.8461,145.9848,27.0827,6.496870,0.0595179,0.68632820,189.3724,08/24.0/2021,2000,g 16.0,4.0
# From MPC 91612
P/2013 G1 (Kowalski),e,5.4637,221.3733,51.4627,6.890911,0.0544865,0.51259887,153.1634,08/24.0/2021,2000,g 11.0,4.0
# From MPC 84025
P/2013 G4 (PANSTARRS),e,5.9165,339.6380,214.6757,4.440087,0.1053457,0.40947789,328.4532,08/24.0/2021,2000,g 15.0,4.0
# From MPC 91613
P/2013 J2 (McNaught),e,15.5293,289.4112,37.7681,6.222781,0.0634932,0.65767389,185.1996,08/24.0/2021,2000,g 13.0,4.0
# From MPC 86229
P/2013 N3 (PANSTARRS),e,2.1739,17.4678,323.9053,7.391579,0.0490454,0.59331572,134.6503,08/24.0/2021,2000,g 13.0,4.0
# From MPC 85834
P/2013 N5 (PANSTARRS),e,23.4430,187.1587,176.9010,6.798121,0.0556059,0.73223239,165.3201,08/24.0/2021,2000,g 17.0,4.0
# From MPC 85834
P/2013 P1 (PANSTARRS),e,18.7245,160.5941,138.1739,8.573112,0.0392642,0.60578124,121.5957,08/24.0/2021,2000,g 12.0,4.0
# From MPC 94671
P/2013 R3 (Catalina-PANSTARRS),e,0.8653,342.0007,11.1800,3.033487,0.1865481,0.27532069,184.8327,08/24.0/2021,2000,g 14.0,4.0
# From unp
P/2013 R3-A (Catalina-PANSTARRS),e,0.8647,341.9675,11.2190,3.033345,0.1865612,0.27529022,184.8685,08/24.0/2021,2000,g  9.0,4.0
# From MPEC 2015-M77
P/2013 R3-B (Catalina-PANSTARRS),e,0.8659,342.0234,11.1539,3.033564,0.1865411,0.27533568,184.8135,08/24.0/2021,2000,g  9.0,4.0
# From MPC 85835
P/2013 T1 (PANSTARRS),e,24.2911,10.0820,346.1070,5.859739,0.0694843,0.62401670,204.4634,08/24.0/2021,2000,g 16.5,4.0
# From MPC 86643
P/2013 T2 (Schwartz),e,9.4569,0.8047,345.5214,3.490402,0.1511440,0.50125362,95.5676,08/24.0/2021,2000,g 16.0,4.0
# From MPC 91613
P/2013 W1 (PANSTARRS),e,4.6955,117.8472,1.2744,3.489612,0.1511953,0.59273279,52.5751,08/24.0/2021,2000,g 17.5,4.0
# From MPC101095
P/2013 YG46 (Spacewatch),e,7.8561,48.8468,242.5470,3.275701,0.1662446,0.45487958,276.8522,08/24.0/2021,2000,g 10.0,4.0
# From MPC 89728
P/2014 A2 (Hill),e,24.5353,106.6297,356.1911,5.927255,0.0683005,0.64527097,196.2020,08/24.0/2021,2000,g 15.0,4.0
# From MPC 92981
P/2014 A3 (PANSTARRS),e,13.6952,230.0381,213.5400,4.620522,0.0992356,0.24744027,300.1295,08/24.0/2021,2000,g 12.0,4.0
# From MPEC 2021-P47
C/2014 B1 (Schwartz),e,28.4107,161.4210,345.7159,5202,0.0000026,0.99816398,0.0000,09/07.6371/2017,2000,g  4.0,4.0
# From MPC102095
P/2014 C1 (TOTAS),e,2.6894,167.7699,23.9469,3.037721,0.1861582,0.44862802,160.7037,08/24.0/2021,2000,g 15.5,4.0
# From MPC 94280
C/2014 F3 (Sheppard-Trujillo),e,6.5962,326.7401,3.7109,15.28322,0.0164961,0.62770191,1.5691,08/24.0/2021,2000,g  6.0,4.0
# From MPC 98560
P/2014 L2 (NEOWISE),e,5.1995,149.3474,182.6688,6.303759,0.0622737,0.64826675,161.3983,08/24.0/2021,2000,g 12.0,4.0
# From MPC 90769
P/2014 L3 (Hill),e,6.2763,115.4741,178.6678,8.171265,0.0421959,0.77364335,110.1425,08/24.0/2021,2000,g 16.0,4.0
# From MPC 91614
P/2014 M4 (PANSTARRS),e,3.3373,263.2447,147.9601,5.872598,0.0692562,0.59451448,168.5204,08/24.0/2021,2000,g 15.0,4.0
# From MPC103844
P/2014 MG4 (Spacewatch-PANSTARRS),e,9.3710,311.7344,299.1034,5.012152,0.0878350,0.25944535,262.4792,08/24.0/2021,2000,g  9.5,4.0
# From MPC 98560
P/2014 O3 (PANSTARRS),e,7.8041,87.6446,204.6679,7.567483,0.0473453,0.38581282,126.9836,08/24.0/2021,2000,g 10.5,4.0
# From MPEC 2021-P47
C/2014 OE4 (PANSTARRS),h,12/13.0256/2016,81.2911,240.4263,65.8949,1.003213,6.250045,2000,11.0,2.0
# From MPC 91615
P/2014 R5 (Lemmon-PANSTARRS),e,1.0883,126.5604,213.7394,4.056368,0.1206419,0.41375173,316.5694,08/24.0/2021,2000,g 15.0,4.0
# From MPC 91616
P/2014 U4 (PANSTARRS),e,6.4292,11.8895,347.7487,3.506162,0.1501261,0.46488919,28.7456,08/24.0/2021,2000,g 18.0,4.0
# From MPC 95211
P/2014 V1 (PANSTARRS),e,22.5246,166.2002,177.5928,5.480505,0.0768198,0.53442962,184.6251,08/24.0/2021,2000,g 14.0,4.0
# From MPC 93586
P/2014 W1 (PANSTARRS),e,8.8376,246.2445,152.1990,4.462895,0.1045392,0.38883647,271.3688,08/24.0/2021,2000,g 15.5,4.0
# From MPC105542
P/2014 W4 (PANSTARRS),e,15.2766,33.3653,67.7531,6.595768,0.0581843,0.35225760,120.1203,08/24.0/2021,2000,g 11.0,4.0
# From MPEC 2021-Q47
P/2014 W12 (Gibbs),e,8.5152,299.3363,36.8094,3.484498,0.1515283,0.51959585,15.3550,08/24.0/2021,2000,g 15.0,4.0
# From MPC 94281
P/2014 X1 (Elenin),e,26.0157,61.5196,33.9367,6.208342,0.0637148,0.70871169,154.6812,08/24.0/2021,2000,g 15.0,4.0
# From MPC 92275
P/2015 A3 (PANSTARRS),e,172.5322,277.2071,249.2948,7.809708,0.0451598,0.85098367,107.4667,08/24.0/2021,2000,g 20.0,4.0
# From MPC 99270
P/2015 B1 (PANSTARRS),e,18.0368,352.9828,188.8926,9.497690,0.0336726,0.36761831,73.1109,08/24.0/2021,2000,g  8.5,4.0
# From MPC109141
P/2015 B4 (Lemmon-PANSTARRS),e,1.7603,266.0277,227.4207,8.527712,0.0395781,0.56006999,94.7462,08/24.0/2021,2000,g 11.0,4.0
# From MPC101096
P/2015 C1 (TOTAS-Gibbs),e,13.8982,348.8102,178.2587,6.581699,0.0583710,0.56029297,134.9606,08/24.0/2021,2000,g 12.5,4.0
# From MPC109141
P/2015 D5 (Kowalski),e,20.5084,74.0608,39.8173,8.965559,0.0367145,0.48894023,99.2418,08/24.0/2021,2000,g  9.0,4.0
# From MPC 96866
P/2015 D6 (Lemmon-PANSTARRS),e,20.2011,45.9650,125.1416,7.142340,0.0516349,0.36153230,115.9704,08/24.0/2021,2000,g 10.5,4.0
# From MPEC 2021-P47
C/2015 ER61 (PANSTARRS),e,6.3307,235.1073,68.3971,517.3908,0.0000837,0.99798033,0.0000,05/10.5146/2017,2000,g 11.0,2.0
# From MPEC 2018-BF5
C/2015 E61-B (PANSTARRS),e,6.3323,235.1424,68.4864,1598,0.0000154,0.99934493,0.0000,05/10.4924/2017,2000,g 13.5,2.0
# From MPC117068
C/2015 H2 (PANSTARRS),h,09/14.0336/2016,33.6461,350.6696,288.1461,1.005630,4.982658,2000,7.5,4.0
# From MPEC 2021-P47
P/2015 HG16 (PANSTARRS),e,18.7763,58.4423,47.6027,4.750470,0.0951917,0.35214707,249.8231,08/24.0/2021,2000,g 12.5,4.0
# From MPC 95213
P/2015 K5 (PANSTARRS),e,39.9448,134.1755,106.3577,6.722809,0.0565429,0.55298699,128.4963,08/24.0/2021,2000,g 13.5,4.0
# From MPC107684
P/2015 M2 (PANSTARRS),e,3.9719,86.5855,225.6306,7.233103,0.0506661,0.18086663,110.1210,08/24.0/2021,2000,g  8.5,4.0
# From MPEC 2021-P47
C/2015 O1 (PANSTARRS),h,02/19.8762/2018,127.2197,299.8499,89.6234,1.001497,3.727737,2000,6.5,4.0
# From MPC 99819
P/2015 P4 (PANSTARRS),e,8.7174,104.7456,280.5752,6.048254,0.0662612,0.58506230,135.3187,08/24.0/2021,2000,g 14.0,4.0
# From MPC102952
P/2015 PD229 (Cameron-ISON),e,2.0263,342.6313,352.5172,7.184875,0.0511770,0.32818362,112.5510,08/24.0/2021,2000,g 11.5,2.0
# From MPC 99819
P/2015 Q1 (Scotti),e,22.3879,202.8540,199.8387,3.474750,0.1521664,0.47804527,333.5852,08/24.0/2021,2000,g 14.0,4.0
# From MPC 96867
P/2015 Q2 (Pimentel),e,146.5125,228.4521,244.5380,7.350120,0.0494609,0.75062569,107.7863,08/24.0/2021,2000,g 15.5,4.0
# From MPC 98562
P/2015 R1 (PANSTARRS),e,22.6842,48.3956,300.4711,5.880078,0.0691241,0.63432200,155.3892,08/24.0/2021,2000,g 14.0,4.0
# From MPC 95734
P/2015 R2 (PANSTARRS),e,15.4835,168.5972,149.7908,4.487517,0.1036800,0.45294686,234.6685,08/24.0/2021,2000,g 14.5,4.0
# From MPC117068
